ONEWEB-0182             
1 48228U 21031U   25342.20264538  .00000092  00000+0  21240-3 0  9999
2 48228  87.8974 327.7634 0001653  93.4125 266.7194 13.14502343223345
ONEWEB-0186             
1 48229U 21031V   25342.21374423 -.00000204  00000+0 -58579-3 0  9998
2 48229  87.8990 327.7372 0001654  84.8744 275.2575 13.14503560223299
ONEWEB-0181             
1 48230U 21031W   25342.19154162  .00000146  00000+0  36014-3 0  9996
2 48230  87.8976 327.7968 0001644  80.3041 279.8274 13.14503101223147
ONEWEB-0188             
1 48231U 21031X   25342.22959503 -.00000273  00000+0 -77006-3 0  9992
2 48231  87.8981 327.7856 0001744  88.2684 271.8645 13.14503989223059
ONEWEB-0220             
1 48232U 21031Y   25342.19313134  .00000140  00000+0  34423-3 0  9990
2 48232  87.8992 327.7407 0001476  86.9623 273.1676 13.14503498223317
ONEWEB-0165             
1 48233U 21031Z   25342.22168111 -.00000225  00000+0 -64246-3 0  9990
2 48233  87.8980 327.7620 0001774  75.6312 284.5015 13.14503907223276
ONEWEB-0199             
1 48234U 21031AA  25342.20580842 -.00000010  00000+0 -61703-4 0  9996
2 48234  87.8986 327.7396 0001900  88.4231 271.7117 13.14503929223170
ONEWEB-0203             
1 48235U 21031AB  25342.19629965  .00000078  00000+0  17529-3 0  9993
2 48235  87.8984 327.7422 0001948  80.6166 279.5184 13.14502700223189
ONEWEB-0197             
1 48236U 21031AC  25342.24690397  .00000052  00000+0  10486-3 0  9994
2 48236  87.8985 327.7307 0001638  97.1517 262.9799 13.14504040223101
ONEWEB-0194             
1 48237U 21031AD  25342.22642997 -.00000225  00000+0 -64185-3 0  9995
2 48237  87.8989 327.7519 0002052  87.2135 272.9230 13.14502611223279
ONEWEB-0193             
1 48238U 21031AE  25342.24228128 -.00000030  00000+0 -11623-3 0  9997
2 48238  87.8982 327.7436 0002205  89.4191 270.7192 13.14504592223225
ONEWEB-0191             
1 48239U 21031AF  25342.25338729  .00000213  00000+0  53881-3 0  9991
2 48239  87.8992 327.7307 0001788  89.1446 270.9888 13.14501275223082
ONEWEB-0195             
1 48240U 21031AG  25342.23038677 -.00000177  00000+0 -51278-3 0  9999
2 48240  87.8999 327.7319 0001676  73.9239 286.2076 13.14501834223069
ONEWEB-0201             
1 48241U 21031AH  25342.21864490 -.00000280  00000+0 -78954-3 0  9993
2 48241  87.8982 327.7740 0001485  88.5957 271.5343 13.14502192223294
ONEWEB-0207             
1 48242U 21031AJ  25342.19868175 -.00000041  00000+0 -14377-3 0  9999
2 48242  87.8995 327.7396 0001541  90.7039 269.4267 13.14501256223207
ONEWEB-0208             
1 48243U 21031AK  25342.25655933  .00000214  00000+0  54282-3 0  9992
2 48243  87.8987 327.7432 0001673  79.7214 280.4105 13.14503896223226
