[{"OBJECT_NAME":"ONEWEB-0182","OBJECT_ID":"2021-031U","EPOCH":"2025-12-08T04:51:48.560832","MEAN_MOTION":13.14502343,"ECCENTRICITY":0.0001653,"INCLINATION":87.8974,"RA_OF_ASC_NODE":327.7634,"ARG_OF_PERICENTER":93.4125,"MEAN_ANOMALY":266.7194,"EPHEMERIS_TYPE":0,"CLASSIFICATION_TYPE":"U","NORAD_CAT_ID":48228,"ELEMENT_SET_NO":999,"REV_AT_EPOCH":22334,"BSTAR":0.00021239715,"MEAN_MOTION_DOT":9.2e-7,"MEAN_MOTION_DDOT":0},{"OBJECT_NAME":"ONEWEB-0186","OBJECT_ID":"2021-031V","EPOCH":"2025-12-08T05:07:47.501472","MEAN_MOTION":13.1450356,"ECCENTRICITY":0.00016541,"INCLINATION":87.899,"RA_OF_ASC_NODE":327.7372,"ARG_OF_PERICENTER":84.8744,"MEAN_ANOMALY":275.2575,"EPHEMERIS_TYPE":0,"CLASSIFICATION_TYPE":"U","NORAD_CAT_ID":48229,"ELEMENT_SET_NO":999,"REV_AT_EPOCH":22329,"BSTAR":-0.00058578798,"MEAN_MOTION_DOT":-2.04e-6,"MEAN_MOTION_DDOT":0},{"OBJECT_NAME":"ONEWEB-0181","OBJECT_ID":"2021-031W","EPOCH":"2025-12-08T04:35:49.195968","MEAN_MOTION":13.14503101,"ECCENTRICITY":0.00016441,"INCLINATION":87.8976,"RA_OF_ASC_NODE":327.7968,"ARG_OF_PERICENTER":80.3041,"MEAN_ANOMALY":279.8274,"EPHEMERIS_TYPE":0,"CLASSIFICATION_TYPE":"U","NORAD_CAT_ID":48230,"ELEMENT_SET_NO":999,"REV_AT_EPOCH":22314,"BSTAR":0.00036014132,"MEAN_MOTION_DOT":1.46e-6,"MEAN_MOTION_DDOT":0},{"OBJECT_NAME":"ONEWEB-0188","OBJECT_ID":"2021-031X","EPOCH":"2025-12-08T05:30:37.010592","MEAN_MOTION":13.14503989,"ECCENTRICITY":0.00017441,"INCLINATION":87.8981,"RA_OF_ASC_NODE":327.7856,"ARG_OF_PERICENTER":88.2684,"MEAN_ANOMALY":271.8645,"EPHEMERIS_TYPE":0,"CLASSIFICATION_TYPE":"U","NORAD_CAT_ID":48231,"ELEMENT_SET_NO":999,"REV_AT_EPOCH":22305,"BSTAR":-0.0007700642,"MEAN_MOTION_DOT":-2.73e-6,"MEAN_MOTION_DDOT":0},{"OBJECT_NAME":"ONEWEB-0220","OBJECT_ID":"2021-031Y","EPOCH":"2025-12-08T04:38:06.547776","MEAN_MOTION":13.14503498,"ECCENTRICITY":0.00014762,"INCLINATION":87.8992,"RA_OF_ASC_NODE":327.7407,"ARG_OF_PERICENTER":86.9623,"MEAN_ANOMALY":273.1676,"EPHEMERIS_TYPE":0,"CLASSIFICATION_TYPE":"U","NORAD_CAT_ID":48232,"ELEMENT_SET_NO":999,"REV_AT_EPOCH":22331,"BSTAR":0.00034423427,"MEAN_MOTION_DOT":1.4e-6,"MEAN_MOTION_DDOT":0},{"OBJECT_NAME":"ONEWEB-0165","OBJECT_ID":"2021-031Z","EPOCH":"2025-12-08T05:19:13.247904","MEAN_MOTION":13.14503907,"ECCENTRICITY":0.0001774,"INCLINATION":87.898,"RA_OF_ASC_NODE":327.762,"ARG_OF_PERICENTER":75.6312,"MEAN_ANOMALY":284.5015,"EPHEMERIS_TYPE":0,"CLASSIFICATION_TYPE":"U","NORAD_CAT_ID":48233,"ELEMENT_SET_NO":999,"REV_AT_EPOCH":22327,"BSTAR":-0.00064245818,"MEAN_MOTION_DOT":-2.25e-6,"MEAN_MOTION_DDOT":0},{"OBJECT_NAME":"ONEWEB-0199","OBJECT_ID":"2021-031AA","EPOCH":"2025-12-08T04:56:21.847488","MEAN_MOTION":13.14503929,"ECCENTRICITY":0.00019002,"INCLINATION":87.8986,"RA_OF_ASC_NODE":327.7396,"ARG_OF_PERICENTER":88.4231,"MEAN_ANOMALY":271.7117,"EPHEMERIS_TYPE":0,"CLASSIFICATION_TYPE":"U","NORAD_CAT_ID":48234,"ELEMENT_SET_NO":999,"REV_AT_EPOCH":22317,"BSTAR":-6.1702986e-5,"MEAN_MOTION_DOT":-1.0e-7,"MEAN_MOTION_DDOT":0},{"OBJECT_NAME":"ONEWEB-0203","OBJECT_ID":"2021-031AB","EPOCH":"2025-12-08T04:42:40.289760","MEAN_MOTION":13.145027,"ECCENTRICITY":0.00019486,"INCLINATION":87.8984,"RA_OF_ASC_NODE":327.7422,"ARG_OF_PERICENTER":80.6166,"MEAN_ANOMALY":279.5184,"EPHEMERIS_TYPE":0,"CLASSIFICATION_TYPE":"U","NORAD_CAT_ID":48235,"ELEMENT_SET_NO":999,"REV_AT_EPOCH":22318,"BSTAR":0.00017528899,"MEAN_MOTION_DOT":7.8e-7,"MEAN_MOTION_DDOT":0},{"OBJECT_NAME":"ONEWEB-0197","OBJECT_ID":"2021-031AC","EPOCH":"2025-12-08T05:55:32.503008","MEAN_MOTION":13.1450404,"ECCENTRICITY":0.00016383,"INCLINATION":87.8985,"RA_OF_ASC_NODE":327.7307,"ARG_OF_PERICENTER":97.1517,"MEAN_ANOMALY":262.9799,"EPHEMERIS_TYPE":0,"CLASSIFICATION_TYPE":"U","NORAD_CAT_ID":48236,"ELEMENT_SET_NO":999,"REV_AT_EPOCH":22310,"BSTAR":0.00010485561,"MEAN_MOTION_DOT":5.2e-7,"MEAN_MOTION_DDOT":0},{"OBJECT_NAME":"ONEWEB-0194","OBJECT_ID":"2021-031AD","EPOCH":"2025-12-08T05:26:03.549408","MEAN_MOTION":13.14502611,"ECCENTRICITY":0.00020525,"INCLINATION":87.8989,"RA_OF_ASC_NODE":327.7519,"ARG_OF_PERICENTER":87.2135,"MEAN_ANOMALY":272.923,"EPHEMERIS_TYPE":0,"CLASSIFICATION_TYPE":"U","NORAD_CAT_ID":48237,"ELEMENT_SET_NO":999,"REV_AT_EPOCH":22327,"BSTAR":-0.00064185472,"MEAN_MOTION_DOT":-2.25e-6,"MEAN_MOTION_DDOT":0},{"OBJECT_NAME":"ONEWEB-0193","OBJECT_ID":"2021-031AE","EPOCH":"2025-12-08T05:48:53.102592","MEAN_MOTION":13.14504592,"ECCENTRICITY":0.00022056,"INCLINATION":87.8982,"RA_OF_ASC_NODE":327.7436,"ARG_OF_PERICENTER":89.4191,"MEAN_ANOMALY":270.7192,"EPHEMERIS_TYPE":0,"CLASSIFICATION_TYPE":"U","NORAD_CAT_ID":48238,"ELEMENT_SET_NO":999,"REV_AT_EPOCH":22322,"BSTAR":-0.00011623474,"MEAN_MOTION_DOT":-3.0e-7,"MEAN_MOTION_DDOT":0},{"OBJECT_NAME":"ONEWEB-0191","OBJECT_ID":"2021-031AF","EPOCH":"2025-12-08T06:04:52.661856","MEAN_MOTION":13.14501275,"ECCENTRICITY":0.00017881,"INCLINATION":87.8992,"RA_OF_ASC_NODE":327.7307,"ARG_OF_PERICENTER":89.1446,"MEAN_ANOMALY":270.9888,"EPHEMERIS_TYPE":0,"CLASSIFICATION_TYPE":"U","NORAD_CAT_ID":48239,"ELEMENT_SET_NO":999,"REV_AT_EPOCH":22308,"BSTAR":0.00053880871,"MEAN_MOTION_DOT":2.13e-6,"MEAN_MOTION_DDOT":0},{"OBJECT_NAME":"ONEWEB-0195","OBJECT_ID":"2021-031AG","EPOCH":"2025-12-08T05:31:45.416928","MEAN_MOTION":13.14501834,"ECCENTRICITY":0.00016765,"INCLINATION":87.8999,"RA_OF_ASC_NODE":327.7319,"ARG_OF_PERICENTER":73.9239,"MEAN_ANOMALY":286.2076,"EPHEMERIS_TYPE":0,"CLASSIFICATION_TYPE":"U","NORAD_CAT_ID":48240,"ELEMENT_SET_NO":999,"REV_AT_EPOCH":22306,"BSTAR":-0.00051277538,"MEAN_MOTION_DOT":-1.77e-6,"MEAN_MOTION_DDOT":0},{"OBJECT_NAME":"ONEWEB-0201","OBJECT_ID":"2021-031AH","EPOCH":"2025-12-08T05:14:50.919360","MEAN_MOTION":13.14502192,"ECCENTRICITY":0.0001485,"INCLINATION":87.8982,"RA_OF_ASC_NODE":327.774,"ARG_OF_PERICENTER":88.5957,"MEAN_ANOMALY":271.5343,"EPHEMERIS_TYPE":0,"CLASSIFICATION_TYPE":"U","NORAD_CAT_ID":48241,"ELEMENT_SET_NO":999,"REV_AT_EPOCH":22329,"BSTAR":-0.00078953629,"MEAN_MOTION_DOT":-2.8e-6,"MEAN_MOTION_DDOT":0},{"OBJECT_NAME":"ONEWEB-0207","OBJECT_ID":"2021-031AJ","EPOCH":"2025-12-08T04:46:06.103200","MEAN_MOTION":13.14501256,"ECCENTRICITY":0.00015413,"INCLINATION":87.8995,"RA_OF_ASC_NODE":327.7396,"ARG_OF_PERICENTER":90.7039,"MEAN_ANOMALY":269.4267,"EPHEMERIS_TYPE":0,"CLASSIFICATION_TYPE":"U","NORAD_CAT_ID":48242,"ELEMENT_SET_NO":999,"REV_AT_EPOCH":22320,"BSTAR":-0.00014377073,"MEAN_MOTION_DOT":-4.1e-7,"MEAN_MOTION_DDOT":0},{"OBJECT_NAME":"ONEWEB-0208","OBJECT_ID":"2021-031AK","EPOCH":"2025-12-08T06:09:26.726112","MEAN_MOTION":13.14503896,"ECCENTRICITY":0.00016736,"INCLINATION":87.8987,"RA_OF_ASC_NODE":327.7432,"ARG_OF_PERICENTER":79.7214,"MEAN_ANOMALY":280.4105,"EPHEMERIS_TYPE":0,"CLASSIFICATION_TYPE":"U","NORAD_CAT_ID":48243,"ELEMENT_SET_NO":999,"REV_AT_EPOCH":22322,"BSTAR":0.00054281576,"MEAN_MOTION_DOT":2.14e-6,"MEAN_MOTION_DDOT":0}]
